# sample NMEA fixture (parser-only, NOT a gate claim - real TTFF/track in results.md)
# Passes tests/gnss-assert.py: checksums OK, monotonic UTC, RMC fix present.
# Coordinates are a lab-roof placeholder (Munich test point); gate runs use site log.
$GPRMC,120000.00,A,4807.038,N,01131.000,E,0.5,0.0,010626,0.0,E*5F
$GPRMC,120001.00,A,4807.040,N,01131.002,E,0.5,0.0,010626,0.0,E*53
$GPRMC,120002.00,A,4807.042,N,01131.004,E,0.5,0.0,010626,0.0,E*54
$GPGGA,120002.00,4807.042,N,01131.004,E,1,08,0.9,545.4,M,47.0,M,,*64
$GPGSV,1,1,08,01,40,083,42,02,35,120,40,03,25,200,38,04,30,300,41*76
